ONEWEB-0412             
1 50489U 21132W   23280.44119971 -.00000048  00000+0 -15427-3 0  9991
2 50489  87.9225 171.1208 0002318  84.0184 276.1212 13.18683710 92000
ONEWEB-0413             
1 50490U 21132X   23280.44540688 -.00001091  00000+0 -28004-2 0  9999
2 50490  87.9290 171.1180 0002359  79.4416 280.6982 13.18693984 91944
ONEWEB-0414             
1 50491U 21132Y   23280.43170596 -.00000012  00000+0 -64282-4 0  9998
2 50491  87.9283 171.1094 0001972  86.5968 273.5390 13.18688224 91970
ONEWEB-0417             
1 50492U 21132Z   23280.43909197 -.00000018  00000+0 -79029-4 0  9997
2 50492  87.9227 171.1347 0001471  80.2733 279.8565 13.18686231 91952
ONEWEB-0418             
1 50493U 21132AA  23280.45278246 -.00001095  00000+0 -28104-2 0  9996
2 50493  87.9285 171.1051 0001269  88.7068 271.4209 13.18690754 92014
ONEWEB-0419             
1 50494U 21132AB  23280.46648729  .00000031  00000+0  44811-4 0  9997
2 50494  87.9284 171.1268 0001350  69.7131 290.4147 13.18689947 93223
ONEWEB-0420             
1 50495U 21132AC  23280.73628787  .00000054  00000+0  10339-3 0  9992
2 50495  87.9285 171.0817 0001898  63.7518 296.3809 13.18687866 93266
ONEWEB-0421             
1 50496U 21132AD  23280.72995188  .00000082  00000+0  17535-3 0  9990
2 50496  87.9228 171.0666 0002124  85.2549 274.8825 13.18685297 93302
